[{"OBJECT_NAME":"FLOCK 4BE-29","OBJECT_ID":"2024-149AT","EPOCH":"2026-03-09T17:26:17.468448","MEAN_MOTION":15.40462545,"ECCENTRICITY":0.00018351,"INCLINATION":97.3839,"RA_OF_ASC_NODE":153.3546,"ARG_OF_PERICENTER":289.5318,"MEAN_ANOMALY":70.573,"EPHEMERIS_TYPE":0,"CLASSIFICATION_TYPE":"U","NORAD_CAT_ID":60509,"ELEMENT_SET_NO":999,"REV_AT_EPOCH":8708,"BSTAR":0.00057839809,"MEAN_MOTION_DOT":0.00023388,"MEAN_MOTION_DDOT":0},{"OBJECT_NAME":"COSMOS 2098","OBJECT_ID":"1990-078A","EPOCH":"2026-03-09T22:39:16.522272","MEAN_MOTION":13.89477842,"ECCENTRICITY":0.07475619,"INCLINATION":82.9419,"RA_OF_ASC_NODE":157.1361,"ARG_OF_PERICENTER":147.44,"MEAN_ANOMALY":217.5252,"EPHEMERIS_TYPE":0,"CLASSIFICATION_TYPE":"U","NORAD_CAT_ID":20774,"ELEMENT_SET_NO":999,"REV_AT_EPOCH":75873,"BSTAR":0.00051972754,"MEAN_MOTION_DOT":7.386e-5,"MEAN_MOTION_DDOT":0}]
